[{"OBJECT_NAME":"STARLINK-34369","OBJECT_ID":"2025-123G","EPOCH":"2026-03-09T17:36:43.094304","MEAN_MOTION":14.98333066,"ECCENTRICITY":0.00038672,"INCLINATION":70.002,"RA_OF_ASC_NODE":194.4002,"ARG_OF_PERICENTER":269.3151,"MEAN_ANOMALY":90.7565,"EPHEMERIS_TYPE":0,"CLASSIFICATION_TYPE":"U","NORAD_CAT_ID":64297,"ELEMENT_SET_NO":999,"REV_AT_EPOCH":4162,"BSTAR":0.00032177252,"MEAN_MOTION_DOT":3.749e-5,"MEAN_MOTION_DDOT":0},{"OBJECT_NAME":"FENGYUN 1C DEB","OBJECT_ID":"1999-025ARC","EPOCH":"2026-03-09T09:52:34.584960","MEAN_MOTION":14.8862073,"ECCENTRICITY":0.01277475,"INCLINATION":99.058,"RA_OF_ASC_NODE":51.7347,"ARG_OF_PERICENTER":19.4756,"MEAN_ANOMALY":341.1273,"EPHEMERIS_TYPE":0,"CLASSIFICATION_TYPE":"U","NORAD_CAT_ID":30694,"ELEMENT_SET_NO":999,"REV_AT_EPOCH":1384,"BSTAR":0.0015651053,"MEAN_MOTION_DOT":0.00016942,"MEAN_MOTION_DDOT":0}]
